{"type": "FeatureCollection", "features": [ {"type": "Feature", "properties": {"norad_id": 37834, "name": "INTELSAT 18 (IS-18)", "group": "intelsat", "lat": 0.0022706514785477212, "lon": -27.083912898698514, "alt_km": 35780.49132766256, "timestamp": "2025-12-25T03:55:55.974966+00:00", "meta": {"OBJECT_NAME": "INTELSAT 18 (IS-18)", "OBJECT_ID": "2011-056A", "EPOCH": "2025-12-24T17:22:46.477056", "MEAN_MOTION": 1.00271639, "ECCENTRICITY": 0.0001841, "INCLINATION": 0.0221, "RA_OF_ASC_NODE": 289.1837, "ARG_OF_PERICENTER": 359.7616, "MEAN_ANOMALY": 245.2398, "EPHEMERIS_TYPE": 0, "CLASSIFICATION_TYPE": "U", "NORAD_CAT_ID": 37834, "ELEMENT_SET_NO": 999, "REV_AT_EPOCH": 5206, "BSTAR": 0, "MEAN_MOTION_DOT": 7.4e-07, "MEAN_MOTION_DDOT": 0}, "tle": {"line1": "1 37834U 11056A   25358.72414904  .00000074  00000+0  00000+0 0  9991", "line2": "2 37834   0.0221 289.1837 0001841 359.7616 245.2398  1.00271639 52066"}}, "geometry": {"type": "Point", "coordinates": [-27.083912898698514, 0.0022706514785477212]}}, {"type": "Feature", "properties": {"norad_id": 38098, "name": "INTELSAT 22 (IS-22)", "group": "intelsat", "lat": -0.007499218748724957, "lon": -135.03179024134818, "alt_km": 35783.90700152374, "timestamp": "2025-12-25T03:55:55.974978+00:00", "meta": {"OBJECT_NAME": "INTELSAT 22 (IS-22)", "OBJECT_ID": "2012-011A", "EPOCH": "2025-12-24T20:06:58.008096", "MEAN_MOTION": 1.00270499, "ECCENTRICITY": 0.0001937, "INCLINATION": 0.0288, "RA_OF_ASC_NODE": 46.279, "ARG_OF_PERICENTER": 250.8444, "MEAN_ANOMALY": 170.3115, "EPHEMERIS_TYPE": 0, "CLASSIFICATION_TYPE": "U", "NORAD_CAT_ID": 38098, "ELEMENT_SET_NO": 999, "REV_AT_EPOCH": 544, "BSTAR": 0, "MEAN_MOTION_DOT": 0, "MEAN_MOTION_DDOT": 0}, "tle": {"line1": "1 38098U 12011A   25358.83817139  .00000000  00000+0  00000+0 0  9994", "line2": "2 38098   0.0288  46.2790 0001937 250.8444 170.3115  1.00270499  5446"}}, "geometry": {"type": "Point", "coordinates": [-135.03179024134818, -0.007499218748724957]}}, {"type": "Feature", "properties": {"norad_id": 38356, "name": "INTELSAT 19 (IS-19)", "group": "intelsat", "lat": -0.012624713164300473, "lon": -41.06349934205658, "alt_km": 35777.76287513788, "timestamp": "2025-12-25T03:55:55.974990+00:00", "meta": {"OBJECT_NAME": "INTELSAT 19 (IS-19)", "OBJECT_ID": "2012-030A", "EPOCH": "2025-12-24T17:18:46.858752", "MEAN_MOTION": 1.00272076, "ECCENTRICITY": 0.0002928, "INCLINATION": 0.0129, "RA_OF_ASC_NODE": 327.1518, "ARG_OF_PERICENTER": 303.33, "MEAN_ANOMALY": 248.7115, "EPHEMERIS_TYPE": 0, "CLASSIFICATION_TYPE": "U", "NORAD_CAT_ID": 38356, "ELEMENT_SET_NO": 999, "REV_AT_EPOCH": 4870, "BSTAR": 0, "MEAN_MOTION_DOT": -3.5e-07, "MEAN_MOTION_DDOT": 0}, "tle": {"line1": "1 38356U 12030A   25358.72137568 -.00000035  00000+0  00000+0 0  9990", "line2": "2 38356   0.0129 327.1518 0002928 303.3300 248.7115  1.00272076 48701"}}, "geometry": {"type": "Point", "coordinates": [-41.06349934205658, -0.012624713164300473]}}, {"type": "Feature", "properties": {"norad_id": 38740, "name": "INTELSAT 20 (IS-20)", "group": "intelsat", "lat": -0.0014145500823546197, "lon": -138.5831281289395, "alt_km": 35777.05909949184, "timestamp": "2025-12-25T03:55:55.975002+00:00", "meta": {"OBJECT_NAME": "INTELSAT 20 (IS-20)", "OBJECT_ID": "2012-043A", "EPOCH": "2025-12-24T04:51:59.956992", "MEAN_MOTION": 1.00271701, "ECCENTRICITY": 0.00027221, "INCLINATION": 0.0113, "RA_OF_ASC_NODE": 58.3844, "ARG_OF_PERICENTER": 125.0984, "MEAN_ANOMALY": 50.9907, "EPHEMERIS_TYPE": 0, "CLASSIFICATION_TYPE": "U", "NORAD_CAT_ID": 38740, "ELEMENT_SET_NO": 999, "REV_AT_EPOCH": 4899, "BSTAR": 0, "MEAN_MOTION_DOT": -3e-08, "MEAN_MOTION_DDOT": 0}, "tle": {"line1": "1 38740U 12043A   25358.20277728 -.00000003  00000+0  00000+0 0  9992", "line2": "2 38740   0.0113  58.3844 0002722 125.0984  50.9907  1.00271701 48992"}}, "geometry": {"type": "Point", "coordinates": [-138.5831281289395, -0.0014145500823546197]}}, {"type": "Feature", "properties": {"norad_id": 38749, "name": "INTELSAT 21 (IS-21)", "group": "intelsat", "lat": 0.018943174283695758, "lon": 94.91419783454549, "alt_km": 35792.82244505093, "timestamp": "2025-12-25T03:55:55.975014+00:00", "meta": {"OBJECT_NAME": "INTELSAT 21 (IS-21)", "OBJECT_ID": "2012-045A", "EPOCH": "2025-12-24T12:49:27.649056", "MEAN_MOTION": 1.00272859, "ECCENTRICITY": 0.0001679, "INCLINATION": 0.0128, "RA_OF_ASC_NODE": 307.9122, "ARG_OF_PERICENTER": 315.6642, "MEAN_ANOMALY": 324.1074, "EPHEMERIS_TYPE": 0, "CLASSIFICATION_TYPE": "U", "NORAD_CAT_ID": 38749, "ELEMENT_SET_NO": 999, "REV_AT_EPOCH": 4877, "BSTAR": 0, "MEAN_MOTION_DOT": -2.64e-06, "MEAN_MOTION_DDOT": 0}, "tle": {"line1": "1 38749U 12045A   25358.53434779 -.00000264  00000+0  00000+0 0  9999", "line2": "2 38749   0.0128 307.9122 0001679 315.6642 324.1074  1.00272859 48779"}}, "geometry": {"type": "Point", "coordinates": [94.91419783454549, 0.018943174283695758]}}, {"type": "Feature", "properties": {"norad_id": 38867, "name": "INTELSAT 23 (IS-23)", "group": "intelsat", "lat": 0.031456906040818466, "lon": 99.85566226023806, "alt_km": 35788.24600902015, "timestamp": "2025-12-25T03:55:55.975025+00:00", "meta": {"OBJECT_NAME": "INTELSAT 23 (IS-23)", "OBJECT_ID": "2012-057A", "EPOCH": "2025-12-24T06:00:30.893184", "MEAN_MOTION": 1.00259571, "ECCENTRICITY": 3.226e-05, "INCLINATION": 0.0157, "RA_OF_ASC_NODE": 47.8296, "ARG_OF_PERICENTER": 47.4441, "MEAN_ANOMALY": 34.8739, "EPHEMERIS_TYPE": 0, "CLASSIFICATION_TYPE": "U", "NORAD_CAT_ID": 38867, "ELEMENT_SET_NO": 999, "REV_AT_EPOCH": 4820, "BSTAR": 0, "MEAN_MOTION_DOT": -2.64e-06, "MEAN_MOTION_DDOT": 0}, "tle": {"line1": "1 38867U 12057A   25358.25035756 -.00000264  00000+0  00000+0 0  9994", "line2": "2 38867   0.0157  47.8296 0000322  47.4441  34.8739  1.00259571 48202"}}, "geometry": {"type": "Point", "coordinates": [99.85566226023806, 0.031456906040818466]}}, {"type": "Feature", "properties": {"norad_id": 39360, "name": "FM-6", "group": "intelsat", "lat": -0.004926203249759888, "lon": 36.7387181809157, "alt_km": 35793.30911223163, "timestamp": "2025-12-25T03:55:55.975037+00:00", "meta": {"OBJECT_NAME": "FM-6", "OBJECT_ID": "2013-058A", "EPOCH": "2025-12-24T11:33:38.657088", "MEAN_MOTION": 1.00281075, "ECCENTRICITY": 0.0002629, "INCLINATION": 0.0161, "RA_OF_ASC_NODE": 72.2411, "ARG_OF_PERICENTER": 117.6968, "MEAN_ANOMALY": 320.5533, "EPHEMERIS_TYPE": 0, "CLASSIFICATION_TYPE": "U", "NORAD_CAT_ID": 39360, "ELEMENT_SET_NO": 999, "REV_AT_EPOCH": 4432, "BSTAR": 0, "MEAN_MOTION_DOT": 3e-08, "MEAN_MOTION_DDOT": 0}, "tle": {"line1": "1 39360U 13058A   25358.48169742  .00000003  00000+0  00000+0 0  9993", "line2": "2 39360   0.0161  72.2411 0002629 117.6968 320.5533  1.00281075 44323"}}, "geometry": {"type": "Point", "coordinates": [36.7387181809157, -0.004926203249759888]}}, {"type": "Feature", "properties": {"norad_id": 40271, "name": "INTELSAT 30 (IS-30)", "group": "intelsat", "lat": 0.020095285071711145, "lon": 57.832819560141125, "alt_km": 35781.234933809734, "timestamp": "2025-12-25T03:55:55.975049+00:00", "meta": {"OBJECT_NAME": "INTELSAT 30 (IS-30)", "OBJECT_ID": "2014-062A", "EPOCH": "2025-12-24T14:21:33.831072", "MEAN_MOTION": 1.0026973, "ECCENTRICITY": 0.0001519, "INCLINATION": 0.0142, "RA_OF_ASC_NODE": 29.4998, "ARG_OF_PERICENTER": 60.471, "MEAN_ANOMALY": 123.7324, "EPHEMERIS_TYPE": 0, "CLASSIFICATION_TYPE": "U", "NORAD_CAT_ID": 40271, "ELEMENT_SET_NO": 999, "REV_AT_EPOCH": 504, "BSTAR": 0, "MEAN_MOTION_DOT": -1.3e-06, "MEAN_MOTION_DDOT": 0}, "tle": {"line1": "1 40271U 14062A   25358.59830823 -.00000130  00000+0  00000+0 0  9991", "line2": "2 40271   0.0142  29.4998 0001519  60.4710 123.7324  1.00269730  5047"}}, "geometry": {"type": "Point", "coordinates": [57.832819560141125, 0.020095285071711145]}}, {"type": "Feature", "properties": {"norad_id": 40333, "name": "DIRECTV 14", "group": "intelsat", "lat": 0.03167122157099707, "lon": 53.71224344688657, "alt_km": 35785.47964227115, "timestamp": "2025-12-25T03:55:55.975061+00:00", "meta": {"OBJECT_NAME": "DIRECTV 14", "OBJECT_ID": "2014-078B", "EPOCH": "2025-12-24T12:37:43.773312", "MEAN_MOTION": 1.00279829, "ECCENTRICITY": 3.89e-05, "INCLINATION": 0.0184, "RA_OF_ASC_NODE": 340.4706, "ARG_OF_PERICENTER": 254.7884, "MEAN_ANOMALY": 308.2619, "EPHEMERIS_TYPE": 0, "CLASSIFICATION_TYPE": "U", "NORAD_CAT_ID": 40333, "ELEMENT_SET_NO": 999, "REV_AT_EPOCH": 4029, "BSTAR": 0, "MEAN_MOTION_DOT": -1.06e-06, "MEAN_MOTION_DDOT": 0}, "tle": {"line1": "1 40333U 14078B   25358.52620108 -.00000106  00000+0  00000+0 0  9996", "line2": "2 40333   0.0184 340.4706 0000389 254.7884 308.2619  1.00279829 40292"}}, "geometry": {"type": "Point", "coordinates": [53.71224344688657, 0.03167122157099707]}}, {"type": "Feature", "properties": {"norad_id": 40663, "name": "DIRECTV 15", "group": "intelsat", "lat": 0.023024364198462682, "lon": 50.00538456448468, "alt_km": 35788.003484274275, "timestamp": "2025-12-25T03:55:55.975073+00:00", "meta": {"OBJECT_NAME": "DIRECTV 15", "OBJECT_ID": "2015-026A", "EPOCH": "2025-12-24T05:45:47.302848", "MEAN_MOTION": 1.00268312, "ECCENTRICITY": 5.031e-05, "INCLINATION": 0.0214, "RA_OF_ASC_NODE": 20.6929, "ARG_OF_PERICENTER": 145.8822, "MEAN_ANOMALY": 270.0068, "EPHEMERIS_TYPE": 0, "CLASSIFICATION_TYPE": "U", "NORAD_CAT_ID": 40663, "ELEMENT_SET_NO": 999, "REV_AT_EPOCH": 3870, "BSTAR": 0, "MEAN_MOTION_DOT": 0, "MEAN_MOTION_DDOT": 0}, "tle": {"line1": "1 40663U 15026A   25358.24013082  .00000000  00000+0  00000+0 0  9994", "line2": "2 40663   0.0214  20.6929 0000503 145.8822 270.0068  1.00268312 38708"}}, "geometry": {"type": "Point", "coordinates": [50.00538456448468, 0.023024364198462682]}}]}